{
  "type": "FeatureCollection",
  "features": [
    {
      "type": "Feature",
      "properties": {
        "norad_id": 38516,
        "name": "FENGYUN 1C DEB",
        "group": "fengyun-1c-debris",
        "lat": -66.60509460788228,
        "lon": 127.15812861457601,
        "alt_km": 815.1477349731995,
        "timestamp": "2025-12-09T05:43:21.016284+00:00",
        "meta_object_name": "FENGYUN 1C DEB",
        "meta_object_id": "1999-025ETB",
        "meta_epoch": "2025-12-08T16:51:24.952032",
        "meta_mean_motion": 14.34044661,
        "meta_eccentricity": 0.0111366,
        "meta_inclination": 98.4419,
        "meta_ra_of_asc_node": 326.711,
        "meta_arg_of_pericenter": 137.1935,
        "meta_mean_anomaly": 223.7989,
        "meta_ephemeris_type": 0,
        "meta_classification_type": "U",
        "meta_norad_cat_id": 38516,
        "meta_element_set_no": 999,
        "meta_rev_at_epoch": 84815,
        "meta_bstar": 0.0002029,
        "meta_mean_motion_dot": 5.64e-06,
        "meta_mean_motion_ddot": 0,
        "tle_line1": "1 38516U 99025ETB 25342.70237213  .00000564  00000+0  20290-3 0  9999",
        "tle_line2": "2 38516  98.4419 326.7110 0111366 137.1935 223.7989 14.34044661848156"
      },
      "geometry": {
        "type": "Point",
        "coordinates": [
          127.15812861457601,
          -66.60509460788228
        ]
      }
    },
    {
      "type": "Feature",
      "properties": {
        "norad_id": 38717,
        "name": "FENGYUN 1C DEB",
        "group": "fengyun-1c-debris",
        "lat": -74.75743964492021,
        "lon": 34.6337168461676,
        "alt_km": 827.0141099035654,
        "timestamp": "2025-12-09T05:43:21.016295+00:00",
        "meta_object_name": "FENGYUN 1C DEB",
        "meta_object_id": "1999-025ETJ",
        "meta_epoch": "2025-12-07T23:46:50.838816",
        "meta_mean_motion": 14.19881201,
        "meta_eccentricity": 0.00569464,
        "meta_inclination": 99.1587,
        "meta_ra_of_asc_node": 357.0411,
        "meta_arg_of_pericenter": 7.7496,
        "meta_mean_anomaly": 21.6196,
        "meta_ephemeris_type": 0,
        "meta_classification_type": "U",
        "meta_norad_cat_id": 38717,
        "meta_element_set_no": 999,
        "meta_rev_at_epoch": 58359,
        "meta_bstar": 0.0023838739,
        "meta_mean_motion_dot": 5.097e-05,
        "meta_mean_motion_ddot": 0,
        "tle_line1": "1 38717U 99025ETJ 25341.99086619  .00005097  00000+0  23839-2 0  9991",
        "tle_line2": "2 38717  99.1587 357.0411 0056946   7.7496  21.6196 14.19881201583591"
      },
      "geometry": {
        "type": "Point",
        "coordinates": [
          34.6337168461676,
          -74.75743964492021
        ]
      }
    },
    {
      "type": "Feature",
      "properties": {
        "norad_id": 38722,
        "name": "FENGYUN 1C DEB",
        "group": "fengyun-1c-debris",
        "lat": -12.879480351860938,
        "lon": -101.03893830499156,
        "alt_km": 697.067161422965,
        "timestamp": "2025-12-09T05:43:21.016305+00:00",
        "meta_object_name": "FENGYUN 1C DEB",
        "meta_object_id": "1999-025ETP",
        "meta_epoch": "2025-12-07T11:41:09.627072",
        "meta_mean_motion": 14.58179572,
        "meta_eccentricity": 0.01480338,
        "meta_inclination": 99.3541,
        "meta_ra_of_asc_node": 79.152,
        "meta_arg_of_pericenter": 110.7247,
        "meta_mean_anomaly": 250.9886,
        "meta_ephemeris_type": 0,
        "meta_classification_type": "U",
        "meta_norad_cat_id": 38722,
        "meta_element_set_no": 999,
        "meta_rev_at_epoch": 70387,
        "meta_bstar": 0.0047477196,
        "meta_mean_motion_dot": 0.00025504,
        "meta_mean_motion_ddot": 0,
        "tle_line1": "1 38722U 99025ETP 25341.48691698  .00025504  00000+0  47477-2 0  9999",
        "tle_line2": "2 38722  99.3541  79.1520 0148033 110.7247 250.9886 14.58179572703872"
      },
      "geometry": {
        "type": "Point",
        "coordinates": [
          -101.03893830499156,
          -12.879480351860938
        ]
      }
    },
    {
      "type": "Feature",
      "properties": {
        "norad_id": 38724,
        "name": "FENGYUN 1C DEB",
        "group": "fengyun-1c-debris",
        "lat": -61.09985395981565,
        "lon": 8.45070452285085,
        "alt_km": 920.9398886469835,
        "timestamp": "2025-12-09T05:43:21.016316+00:00",
        "meta_object_name": "FENGYUN 1C DEB",
        "meta_object_id": "1999-025ETR",
        "meta_epoch": "2025-11-13T12:10:01.066656",
        "meta_mean_motion": 14.14277973,
        "meta_eccentricity": 0.012547,
        "meta_inclination": 98.7406,
        "meta_ra_of_asc_node": 327.0705,
        "meta_arg_of_pericenter": 154.7752,
        "meta_mean_anomaly": 205.962,
        "meta_ephemeris_type": 0,
        "meta_classification_type": "U",
        "meta_norad_cat_id": 38724,
        "meta_element_set_no": 999,
        "meta_rev_at_epoch": 56211,
        "meta_bstar": 0.0084973,
        "meta_mean_motion_dot": 0.00017498,
        "meta_mean_motion_ddot": 0,
        "tle_line1": "1 38724U 99025ETR 25317.50695679  .00017498  00000+0  84973-2 0  9995",
        "tle_line2": "2 38724  98.7406 327.0705 0125470 154.7752 205.9620 14.14277973562118"
      },
      "geometry": {
        "type": "Point",
        "coordinates": [
          8.45070452285085,
          -61.09985395981565
        ]
      }
    },
    {
      "type": "Feature",
      "properties": {
        "norad_id": 38725,
        "name": "FENGYUN 1C DEB",
        "group": "fengyun-1c-debris",
        "lat": -71.72139412795752,
        "lon": -99.90244882033952,
        "alt_km": 732.8925073746877,
        "timestamp": "2025-12-09T05:43:21.016327+00:00",
        "meta_object_name": "FENGYUN 1C DEB",
        "meta_object_id": "1999-025ETS",
        "meta_epoch": "2025-12-08T01:54:53.946720",
        "meta_mean_motion": 14.4269685,
        "meta_eccentricity": 0.00343724,
        "meta_inclination": 98.8732,
        "meta_ra_of_asc_node": 107.1185,
        "meta_arg_of_pericenter": 270.29,
        "meta_mean_anomaly": 89.435,
        "meta_ephemeris_type": 0,
        "meta_classification_type": "U",
        "meta_norad_cat_id": 38725,
        "meta_element_set_no": 999,
        "meta_rev_at_epoch": 73285,
        "meta_bstar": 0.0035868428,
        "meta_mean_motion_dot": 0.00011993,
        "meta_mean_motion_ddot": 0,
        "tle_line1": "1 38725U 99025ETS 25342.07979105  .00011993  00000+0  35868-2 0  9998",
        "tle_line2": "2 38725  98.8732 107.1185 0034372 270.2900  89.4350 14.42696850732855"
      },
      "geometry": {
        "type": "Point",
        "coordinates": [
          -99.90244882033952,
          -71.72139412795752
        ]
      }
    },
    {
      "type": "Feature",
      "properties": {
        "norad_id": 38726,
        "name": "FENGYUN 1C DEB",
        "group": "fengyun-1c-debris",
        "lat": -7.623872544893514,
        "lon": -174.5563097506582,
        "alt_km": 553.7516623229039,
        "timestamp": "2025-12-09T05:43:21.016337+00:00",
        "meta_object_name": "FENGYUN 1C DEB",
        "meta_object_id": "1999-025ETT",
        "meta_epoch": "2025-12-08T19:18:00.684576",
        "meta_mean_motion": 15.02174528,
        "meta_eccentricity": 0.0023326,
        "meta_inclination": 99.1364,
        "meta_ra_of_asc_node": 6.1671,
        "meta_arg_of_pericenter": 137.4711,
        "meta_mean_anomaly": 222.8321,
        "meta_ephemeris_type": 0,
        "meta_classification_type": "U",
        "meta_norad_cat_id": 38726,
        "meta_element_set_no": 999,
        "meta_rev_at_epoch": 69796,
        "meta_bstar": 0.0084231,
        "meta_mean_motion_dot": 0.00113178,
        "meta_mean_motion_ddot": 0,
        "tle_line1": "1 38726U 99025ETT 25342.80417459  .00113178  00000+0  84231-2 0  9995",
        "tle_line2": "2 38726  99.1364   6.1671 0023326 137.4711 222.8321 15.02174528697963"
      },
      "geometry": {
        "type": "Point",
        "coordinates": [
          -174.5563097506582,
          -7.623872544893514
        ]
      }
    },
    {
      "type": "Feature",
      "properties": {
        "norad_id": 38728,
        "name": "FENGYUN 1C DEB",
        "group": "fengyun-1c-debris",
        "lat": 28.894714833214493,
        "lon": 155.27418187792955,
        "alt_km": 653.551595918585,
        "timestamp": "2025-12-09T05:43:21.016347+00:00",
        "meta_object_name": "FENGYUN 1C DEB",
        "meta_object_id": "1999-025ETV",
        "meta_epoch": "2025-12-06T05:29:30.081696",
        "meta_mean_motion": 14.70418681,
        "meta_eccentricity": 0.0075523,
        "meta_inclination": 99.2588,
        "meta_ra_of_asc_node": 326.6948,
        "meta_arg_of_pericenter": 74.331,
        "meta_mean_anomaly": 352.8104,
        "meta_ephemeris_type": 0,
        "meta_classification_type": "U",
        "meta_norad_cat_id": 38728,
        "meta_element_set_no": 999,
        "meta_rev_at_epoch": 65515,
        "meta_bstar": 0.0019460135,
        "meta_mean_motion_dot": 0.00012268,
        "meta_mean_motion_ddot": 0,
        "tle_line1": "1 38728U 99025ETV 25340.22882039  .00012268  00000+0  19460-2 0  9991",
        "tle_line2": "2 38728  99.2588 326.6948 0075523  74.3310 352.8104 14.70418681655154"
      },
      "geometry": {
        "type": "Point",
        "coordinates": [
          155.27418187792955,
          28.894714833214493
        ]
      }
    }
  ]
}